*******************************************************************************
Ephemeris / WWW_USER Mon Mar 24 08:54:04 2025 Pasadena, USA      / Horizons    
*******************************************************************************
Target body name: (2018 PC20)                     {source: JPL#4}
Center body name: Earth (399)                     {source: DE441}
Center-site name: Mauna Kea
*******************************************************************************
Start time      : A.D. 2018-Nov-21 03:51:00.0000 UT      
Stop  time      : A.D. 2018-Nov-21 16:24:00.0000 UT      
Step-size       : 1 minutes
*******************************************************************************
Target pole/equ : undefined
Target radii    : undefined                                                    
Center geodetic : 204.5278, 19.8260847, 4.21024   {E-lon(deg),Lat(deg),Alt(km)}
Center cylindric: 204.5278, 6006.35451, 2151.0229 {E-lon(deg),Dxy(km),Dz(km)}
Center pole/equ : ITRF93                          {East-longitude positive}
Center radii    : 6378.137, 6378.137, 6356.752 km {Equator_a, b, pole_c}       
Target primary  : Sun
Vis. interferer : MOON (R_eq= 1737.400) km        {source: DE441}
Rel. light bend : Sun                             {source: DE441}
Rel. lght bnd GM: 1.3271E+11 km^3/s^2                                          
Small-body perts: Yes                             {source: SB441-N16}
Atmos refraction: NO (AIRLESS)
RA format       : HMS
Time format     : CAL 
Calendar mode   : Mixed Julian/Gregorian
RTS-only print  : NO       
EOP file        : eop.250321.p250617                                           
EOP coverage    : DATA-BASED 1962-JAN-20 TO 2025-MAR-21. PREDICTS-> 2025-JUN-16
Units conversion: 1 au= 149597870.700 km, c= 299792.458 km/s, 1 day= 86400.0 s 
Table cut-offs 1: Elevation (-90.0deg=NO ),Airmass (>38.000=NO), Daylight (YES)
Table cut-offs 2: Solar elongation (  0.0,180.0=NO ),Local Hour Angle( 0.0=NO )
Table cut-offs 3: RA/DEC angular rate (     0.0=NO )                           
*******************************************************************************
Initial IAU76/J2000 heliocentric ecliptic osculating elements (au, days, deg.):
  EPOCH=  2458343.5 ! 2018-Aug-13.00 (TDB)         Residual RMS= .24519        
   EC= .404352607301711    QR= 1.018354806317198   TP= 2458318.6524357731      
   OM= 139.299704166656    W=  153.5303944744985   IN= 8.986086735514593       
  Equivalent ICRF heliocentric cartesian coordinates (au, au/d):
   X= 8.116079301925467E-01  Y=-6.140581064636024E-01  Z=-2.698058679324596E-01
  VX= 1.436448164656351E-02 VY= 1.329561442287599E-02 VZ= 2.429594529488231E-03
Asteroid physical parameters (km, seconds, rotational period in hours):        
   GM= n.a.                RAD= n.a.               ROTPER= n.a.                
   H= 25.2                 G= .150                 B-V= n.a.                   
                           ALBEDO= n.a.            STYP= n.a.                  
*******************************************************************************
 Date__(UT)__HR:MN     R.A._________(ICRF)_________DEC
******************************************************
$$SOE
 2018-Nov-21 03:51 Cm  00 39 15.657856 -14 45 59.00392
 2018-Nov-21 03:52 Cm  00 39 15.693937 -14 45 58.29337
 2018-Nov-21 03:53 Cm  00 39 15.730009 -14 45 57.58279
 2018-Nov-21 03:54 Cm  00 39 15.766070 -14 45 56.87218
 2018-Nov-21 03:55 Cm  00 39 15.802122 -14 45 56.16153
 2018-Nov-21 03:56 Cm  00 39 15.838165 -14 45 55.45085
 2018-Nov-21 03:57 Cm  00 39 15.874198 -14 45 54.74013
 2018-Nov-21 03:58 Cm  00 39 15.910222 -14 45 54.02938
 2018-Nov-21 03:59 Cm  00 39 15.946236 -14 45 53.31860
 2018-Nov-21 04:00 Cm  00 39 15.982240 -14 45 52.60778
 2018-Nov-21 04:01 Cm  00 39 16.018236 -14 45 51.89692
 2018-Nov-21 04:02 Cm  00 39 16.054222 -14 45 51.18603
 2018-Nov-21 04:03 Cm  00 39 16.090199 -14 45 50.47510
 2018-Nov-21 04:04 Cm  00 39 16.126166 -14 45 49.76414
 2018-Nov-21 04:05 Nm  00 39 16.162125 -14 45 49.05314
 2018-Nov-21 04:06 Nm  00 39 16.198074 -14 45 48.34211
 2018-Nov-21 04:07 Nm  00 39 16.234015 -14 45 47.63104
 2018-Nov-21 04:08 Nm  00 39 16.269946 -14 45 46.91994
 2018-Nov-21 04:09 Nm  00 39 16.305868 -14 45 46.20879
 2018-Nov-21 04:10 Nm  00 39 16.341781 -14 45 45.49762
 2018-Nov-21 04:11 Nm  00 39 16.377686 -14 45 44.78640
 2018-Nov-21 04:12 Nm  00 39 16.413581 -14 45 44.07515
 2018-Nov-21 04:13 Nm  00 39 16.449468 -14 45 43.36386
 2018-Nov-21 04:14 Nm  00 39 16.485346 -14 45 42.65254
 2018-Nov-21 04:15 Nm  00 39 16.521215 -14 45 41.94117
 2018-Nov-21 04:16 Nm  00 39 16.557075 -14 45 41.22977
 2018-Nov-21 04:17 Nm  00 39 16.592927 -14 45 40.51834
 2018-Nov-21 04:18 Nm  00 39 16.628771 -14 45 39.80686
 2018-Nov-21 04:19 Nm  00 39 16.664605 -14 45 39.09535
 2018-Nov-21 04:20 Nm  00 39 16.700432 -14 45 38.38380
 2018-Nov-21 04:21 Nm  00 39 16.736249 -14 45 37.67221
 2018-Nov-21 04:22 Nm  00 39 16.772059 -14 45 36.96058
 2018-Nov-21 04:23 Nm  00 39 16.807860 -14 45 36.24891
 2018-Nov-21 04:24 Nm  00 39 16.843653 -14 45 35.53721
 2018-Nov-21 04:25 Nm  00 39 16.879437 -14 45 34.82547
 2018-Nov-21 04:26 Nm  00 39 16.915213 -14 45 34.11369
 2018-Nov-21 04:27 Nm  00 39 16.950981 -14 45 33.40187
 2018-Nov-21 04:28 Nm  00 39 16.986741 -14 45 32.69001
 2018-Nov-21 04:29 Nm  00 39 17.022493 -14 45 31.97811
 2018-Nov-21 04:30 Nm  00 39 17.058237 -14 45 31.26617
 2018-Nov-21 04:31 Nm  00 39 17.093973 -14 45 30.55419
 2018-Nov-21 04:32 Am  00 39 17.129701 -14 45 29.84218
 2018-Nov-21 04:33 Am  00 39 17.165421 -14 45 29.13012
 2018-Nov-21 04:34 Am  00 39 17.201133 -14 45 28.41802
 2018-Nov-21 04:35 Am  00 39 17.236838 -14 45 27.70589
 2018-Nov-21 04:36 Am  00 39 17.272534 -14 45 26.99371
 2018-Nov-21 04:37 Am  00 39 17.308223 -14 45 26.28150
 2018-Nov-21 04:38 Am  00 39 17.343905 -14 45 25.56924
 2018-Nov-21 04:39 Am  00 39 17.379578 -14 45 24.85694
 2018-Nov-21 04:40 Am  00 39 17.415245 -14 45 24.14460
 2018-Nov-21 04:41 Am  00 39 17.450903 -14 45 23.43223
 2018-Nov-21 04:42 Am  00 39 17.486555 -14 45 22.71981
 2018-Nov-21 04:43 Am  00 39 17.522199 -14 45 22.00735
 2018-Nov-21 04:44 Am  00 39 17.557835 -14 45 21.29484
 2018-Nov-21 04:45 Am  00 39 17.593465 -14 45 20.58230
 2018-Nov-21 04:46 Am  00 39 17.629087 -14 45 19.86972
 2018-Nov-21 04:47 Am  00 39 17.664701 -14 45 19.15709
 2018-Nov-21 04:48 Am  00 39 17.700309 -14 45 18.44442
 2018-Nov-21 04:49 Am  00 39 17.735910 -14 45 17.73172
 2018-Nov-21 04:50 Am  00 39 17.771503 -14 45 17.01896
 2018-Nov-21 04:51 Am  00 39 17.807090 -14 45 16.30617
 2018-Nov-21 04:52 Am  00 39 17.842670 -14 45 15.59334
 2018-Nov-21 04:53 Am  00 39 17.878242 -14 45 14.88046
 2018-Nov-21 04:54 Am  00 39 17.913808 -14 45 14.16754
 2018-Nov-21 04:55 Am  00 39 17.949367 -14 45 13.45458
 2018-Nov-21 04:56 Am  00 39 17.984920 -14 45 12.74158
 2018-Nov-21 04:57 Am  00 39 18.020465 -14 45 12.02853
 2018-Nov-21 04:58 Am  00 39 18.056005 -14 45 11.31544
 2018-Nov-21 04:59  m  00 39 18.091537 -14 45 10.60231
 2018-Nov-21 05:00  m  00 39 18.127063 -14 45 09.88913
 2018-Nov-21 05:01  m  00 39 18.162583 -14 45 09.17591
 2018-Nov-21 05:02  m  00 39 18.198096 -14 45 08.46265
 2018-Nov-21 05:03  m  00 39 18.233602 -14 45 07.74935
 2018-Nov-21 05:04  m  00 39 18.269103 -14 45 07.03600
 2018-Nov-21 05:05  m  00 39 18.304597 -14 45 06.32261
 2018-Nov-21 05:06  m  00 39 18.340085 -14 45 05.60917
 2018-Nov-21 05:07  m  00 39 18.375567 -14 45 04.89569
 2018-Nov-21 05:08  m  00 39 18.411042 -14 45 04.18217
 2018-Nov-21 05:09  m  00 39 18.446512 -14 45 03.46860
 2018-Nov-21 05:10  m  00 39 18.481976 -14 45 02.75499
 2018-Nov-21 05:11  m  00 39 18.517433 -14 45 02.04134
 2018-Nov-21 05:12  m  00 39 18.552885 -14 45 01.32764
 2018-Nov-21 05:13  m  00 39 18.588331 -14 45 00.61389
 2018-Nov-21 05:14  m  00 39 18.623771 -14 44 59.90011
 2018-Nov-21 05:15  m  00 39 18.659206 -14 44 59.18627
 2018-Nov-21 05:16  m  00 39 18.694635 -14 44 58.47240
 2018-Nov-21 05:17  m  00 39 18.730058 -14 44 57.75848
 2018-Nov-21 05:18  m  00 39 18.765475 -14 44 57.04451
 2018-Nov-21 05:19  m  00 39 18.800888 -14 44 56.33050
 2018-Nov-21 05:20  m  00 39 18.836294 -14 44 55.61644
 2018-Nov-21 05:21  m  00 39 18.871695 -14 44 54.90234
 2018-Nov-21 05:22  m  00 39 18.907091 -14 44 54.18819
 2018-Nov-21 05:23  m  00 39 18.942482 -14 44 53.47400
 2018-Nov-21 05:24  m  00 39 18.977867 -14 44 52.75976
 2018-Nov-21 05:25  m  00 39 19.013247 -14 44 52.04548
 2018-Nov-21 05:26  m  00 39 19.048623 -14 44 51.33115
 2018-Nov-21 05:27  m  00 39 19.083993 -14 44 50.61678
 2018-Nov-21 05:28  m  00 39 19.119357 -14 44 49.90236
 2018-Nov-21 05:29  m  00 39 19.154718 -14 44 49.18789
 2018-Nov-21 05:30  m  00 39 19.190073 -14 44 48.47338
 2018-Nov-21 05:31  m  00 39 19.225423 -14 44 47.75882
 2018-Nov-21 05:32  m  00 39 19.260768 -14 44 47.04422
 2018-Nov-21 05:33  m  00 39 19.296109 -14 44 46.32957
 2018-Nov-21 05:34  m  00 39 19.331445 -14 44 45.61487
 2018-Nov-21 05:35  m  00 39 19.366777 -14 44 44.90013
 2018-Nov-21 05:36  m  00 39 19.402103 -14 44 44.18534
 2018-Nov-21 05:37  m  00 39 19.437426 -14 44 43.47051
 2018-Nov-21 05:38  m  00 39 19.472744 -14 44 42.75563
 2018-Nov-21 05:39  m  00 39 19.508057 -14 44 42.04070
 2018-Nov-21 05:40  m  00 39 19.543366 -14 44 41.32573
 2018-Nov-21 05:41  m  00 39 19.578671 -14 44 40.61070
 2018-Nov-21 05:42  m  00 39 19.613972 -14 44 39.89564
 2018-Nov-21 05:43  m  00 39 19.649268 -14 44 39.18052
 2018-Nov-21 05:44  m  00 39 19.684561 -14 44 38.46536
 2018-Nov-21 05:45  m  00 39 19.719849 -14 44 37.75015
 2018-Nov-21 05:46  m  00 39 19.755133 -14 44 37.03489
 2018-Nov-21 05:47  m  00 39 19.790414 -14 44 36.31959
 2018-Nov-21 05:48  m  00 39 19.825690 -14 44 35.60424
 2018-Nov-21 05:49  m  00 39 19.860963 -14 44 34.88884
 2018-Nov-21 05:50  m  00 39 19.896232 -14 44 34.17340
 2018-Nov-21 05:51  m  00 39 19.931497 -14 44 33.45790
 2018-Nov-21 05:52  m  00 39 19.966759 -14 44 32.74236
 2018-Nov-21 05:53  m  00 39 20.002016 -14 44 32.02678
